{"type": "FeatureCollection", "features": [ {"type": "Feature", "properties": {"norad_id": 37216, "name": "COSMO-SKYMED 4", "group": "resource", "lat": -71.11681133355022, "lon": -171.41940736455177, "alt_km": 630.6462435138674, "timestamp": "2025-12-09T07:41:32.859675+00:00", "meta": {"OBJECT_NAME": "COSMO-SKYMED 4", "OBJECT_ID": "2010-060A", "EPOCH": "2025-12-08T23:55:09.244992", "MEAN_MOTION": 14.82162515, "ECCENTRICITY": 0.00013891, "INCLINATION": 97.8801, "RA_OF_ASC_NODE": 164.3759, "ARG_OF_PERICENTER": 78.8885, "MEAN_ANOMALY": 281.2484, "EPHEMERIS_TYPE": 0, "CLASSIFICATION_TYPE": "U", "NORAD_CAT_ID": 37216, "ELEMENT_SET_NO": 999, "REV_AT_EPOCH": 81639, "BSTAR": 0.00017462891, "MEAN_MOTION_DOT": 1.339e-05, "MEAN_MOTION_DDOT": 0}, "tle": {"line1": "1 37216U 10060A   25342.99663478  .00001339  00000+0  17463-3 0  9993", "line2": "2 37216  97.8801 164.3759 0001389  78.8885 281.2484 14.82162515816395"}}, "geometry": {"type": "Point", "coordinates": [-171.41940736455177, -71.11681133355022]}}, {"type": "Feature", "properties": {"norad_id": 37387, "name": "RESOURCESAT-2", "group": "resource", "lat": -79.1348893045059, "lon": 100.59046196245603, "alt_km": 830.637882008491, "timestamp": "2025-12-09T07:41:32.859686+00:00", "meta": {"OBJECT_NAME": "RESOURCESAT-2", "OBJECT_ID": "2011-015A", "EPOCH": "2025-12-08T21:57:00.136224", "MEAN_MOTION": 14.21594738, "ECCENTRICITY": 0.0006603, "INCLINATION": 98.7881, "RA_OF_ASC_NODE": 46.4835, "ARG_OF_PERICENTER": 52.5119, "MEAN_ANOMALY": 307.6657, "EPHEMERIS_TYPE": 0, "CLASSIFICATION_TYPE": "U", "NORAD_CAT_ID": 37387, "ELEMENT_SET_NO": 999, "REV_AT_EPOCH": 75914, "BSTAR": 0.00012880806, "MEAN_MOTION_DOT": 2.38e-06, "MEAN_MOTION_DDOT": 0}, "tle": {"line1": "1 37387U 11015A   25342.91458491  .00000238  00000+0  12881-3 0  9998", "line2": "2 37387  98.7881  46.4835 0006603  52.5119 307.6657 14.21594738759143"}}, "geometry": {"type": "Point", "coordinates": [100.59046196245603, -79.1348893045059]}}, {"type": "Feature", "properties": {"norad_id": 37781, "name": "HAIYANG-2A", "group": "resource", "lat": 49.159268074186926, "lon": 175.27918343671115, "alt_km": 962.5997307627149, "timestamp": "2025-12-09T07:41:32.859696+00:00", "meta": {"OBJECT_NAME": "HAIYANG-2A", "OBJECT_ID": "2011-043A", "EPOCH": "2025-12-09T00:05:55.646592", "MEAN_MOTION": 13.78833644, "ECCENTRICITY": 0.00016442, "INCLINATION": 99.3373, "RA_OF_ASC_NODE": 343.9956, "ARG_OF_PERICENTER": 88.3436, "MEAN_ANOMALY": 271.7904, "EPHEMERIS_TYPE": 0, "CLASSIFICATION_TYPE": "U", "NORAD_CAT_ID": 37781, "ELEMENT_SET_NO": 999, "REV_AT_EPOCH": 72047, "BSTAR": -0.00028180085, "MEAN_MOTION_DOT": -3.31e-06, "MEAN_MOTION_DDOT": 0}, "tle": {"line1": "1 37781U 11043A   25343.00411628 -.00000331  00000+0 -28180-3 0  9994", "line2": "2 37781  99.3373 343.9956 0001644  88.3436 271.7904 13.78833644720475"}}, "geometry": {"type": "Point", "coordinates": [175.27918343671115, 49.159268074186926]}}, {"type": "Feature", "properties": {"norad_id": 37791, "name": "RASAT", "group": "resource", "lat": -51.4031326021182, "lon": -117.60395812526198, "alt_km": 688.9452469737453, "timestamp": "2025-12-09T07:41:32.859707+00:00", "meta": {"OBJECT_NAME": "RASAT", "OBJECT_ID": "2011-044D", "EPOCH": "2025-12-08T22:59:10.192704", "MEAN_MOTION": 14.67900283, "ECCENTRICITY": 0.00219518, "INCLINATION": 98.0656, "RA_OF_ASC_NODE": 72.2718, "ARG_OF_PERICENTER": 76.2942, "MEAN_ANOMALY": 39.807, "EPHEMERIS_TYPE": 0, "CLASSIFICATION_TYPE": "U", "NORAD_CAT_ID": 37791, "ELEMENT_SET_NO": 999, "REV_AT_EPOCH": 76527, "BSTAR": 0.00013565755, "MEAN_MOTION_DOT": 7.29e-06, "MEAN_MOTION_DDOT": 0}, "tle": {"line1": "1 37791U 11044D   25342.95775686  .00000729  00000+0  13566-3 0  9997", "line2": "2 37791  98.0656  72.2718 0021951  76.2942  39.8070 14.67900283765272"}}, "geometry": {"type": "Point", "coordinates": [-117.60395812526198, -51.4031326021182]}}, {"type": "Feature", "properties": {"norad_id": 37841, "name": "SRMSAT", "group": "resource", "lat": -16.7643616993968, "lon": 72.59949222308056, "alt_km": 846.237274490577, "timestamp": "2025-12-09T07:41:32.859718+00:00", "meta": {"OBJECT_NAME": "SRMSAT", "OBJECT_ID": "2011-058D", "EPOCH": "2025-12-08T18:35:17.755584", "MEAN_MOTION": 14.11509665, "ECCENTRICITY": 0.00117062, "INCLINATION": 19.9702, "RA_OF_ASC_NODE": 131.9502, "ARG_OF_PERICENTER": 269.448, "MEAN_ANOMALY": 132.3331, "EPHEMERIS_TYPE": 0, "CLASSIFICATION_TYPE": "U", "NORAD_CAT_ID": 37841, "ELEMENT_SET_NO": 999, "REV_AT_EPOCH": 73088, "BSTAR": 0.00016661288, "MEAN_MOTION_DOT": 5.72e-06, "MEAN_MOTION_DDOT": 0}, "tle": {"line1": "1 37841U 11058D   25342.77451106  .00000572  00000+0  16661-3 0  9991", "line2": "2 37841  19.9702 131.9502 0011706 269.4480 132.3331 14.11509665730882"}}, "geometry": {"type": "Point", "coordinates": [72.59949222308056, -16.7643616993968]}}, {"type": "Feature", "properties": {"norad_id": 38012, "name": "PLEIADES 1A", "group": "resource", "lat": 37.49681878753684, "lon": -117.52007109034197, "alt_km": 694.7907495797554, "timestamp": "2025-12-09T07:41:32.859729+00:00", "meta": {"OBJECT_NAME": "PLEIADES 1A", "OBJECT_ID": "2011-076F", "EPOCH": "2025-12-08T23:17:37.935744", "MEAN_MOTION": 14.5855523, "ECCENTRICITY": 0.00013488, "INCLINATION": 98.1827, "RA_OF_ASC_NODE": 55.7972, "ARG_OF_PERICENTER": 73.2458, "MEAN_ANOMALY": 32.318, "EPHEMERIS_TYPE": 0, "CLASSIFICATION_TYPE": "U", "NORAD_CAT_ID": 38012, "ELEMENT_SET_NO": 999, "REV_AT_EPOCH": 74426, "BSTAR": 0.00012537491, "MEAN_MOTION_DOT": 5.37e-06, "MEAN_MOTION_DDOT": 0}, "tle": {"line1": "1 38012U 11076F   25342.97057796  .00000537  00000+0  12537-3 0  9990", "line2": "2 38012  98.1827  55.7972 0001348  73.2458  32.3180 14.58555230744269"}}, "geometry": {"type": "Point", "coordinates": [-117.52007109034197, 37.49681878753684]}}, {"type": "Feature", "properties": {"norad_id": 38038, "name": "ZIYUAN 1-02C (ZY 1-02C)", "group": "resource", "lat": -56.79137062661619, "lon": 62.49685987003721, "alt_km": 776.6821025322561, "timestamp": "2025-12-09T07:41:32.859740+00:00", "meta": {"OBJECT_NAME": "ZIYUAN 1-02C (ZY 1-02C)", "OBJECT_ID": "2011-079A", "EPOCH": "2025-12-09T00:10:49.154304", "MEAN_MOTION": 14.38005097, "ECCENTRICITY": 0.00070032, "INCLINATION": 98.4336, "RA_OF_ASC_NODE": 49.0899, "ARG_OF_PERICENTER": 148.3262, "MEAN_ANOMALY": 334.5078, "EPHEMERIS_TYPE": 0, "CLASSIFICATION_TYPE": "U", "NORAD_CAT_ID": 38038, "ELEMENT_SET_NO": 999, "REV_AT_EPOCH": 73187, "BSTAR": 0.00021421021, "MEAN_MOTION_DOT": 6.05e-06, "MEAN_MOTION_DDOT": 0}, "tle": {"line1": "1 38038U 11079A   25343.00751336  .00000605  00000+0  21421-3 0  9995", "line2": "2 38038  98.4336  49.0899 0007003 148.3262 334.5078 14.38005097731875"}}, "geometry": {"type": "Point", "coordinates": [62.49685987003721, -56.79137062661619]}}, {"type": "Feature", "properties": {"norad_id": 38046, "name": "ZIYUAN 3-1 (ZY 3-1)", "group": "resource", "lat": -61.75264401092361, "lon": 63.22085054903914, "alt_km": 371.697109117933, "timestamp": "2025-12-09T07:41:32.859750+00:00", "meta": {"OBJECT_NAME": "ZIYUAN 3-1 (ZY 3-1)", "OBJECT_ID": "2012-001A", "EPOCH": "2025-12-08T22:46:06.225888", "MEAN_MOTION": 15.67829744, "ECCENTRICITY": 0.00019346, "INCLINATION": 97.1753, "RA_OF_ASC_NODE": 49.279, "ARG_OF_PERICENTER": 8.6778, "MEAN_ANOMALY": 351.4516, "EPHEMERIS_TYPE": 0, "CLASSIFICATION_TYPE": "U", "NORAD_CAT_ID": 38046, "ELEMENT_SET_NO": 999, "REV_AT_EPOCH": 77437, "BSTAR": 0.00074480272, "MEAN_MOTION_DOT": 0.00082329, "MEAN_MOTION_DDOT": 0}, "tle": {"line1": "1 38046U 12001A   25342.94868317  .00082329  00000+0  74480-3 0  9996", "line2": "2 38046  97.1753  49.2790 0001934   8.6778 351.4516 15.67829744774375"}}, "geometry": {"type": "Point", "coordinates": [63.22085054903914, -61.75264401092361]}}, {"type": "Feature", "properties": {"norad_id": 38338, "name": "ARIRANG-3 (KOMPSAT-3)", "group": "resource", "lat": 0.48400581140885446, "lon": -62.18669470336182, "alt_km": 686.6776560647577, "timestamp": "2025-12-09T07:41:32.859761+00:00", "meta": {"OBJECT_NAME": "ARIRANG-3 (KOMPSAT-3)", "OBJECT_ID": "2012-025B", "EPOCH": "2025-12-08T21:49:58.447200", "MEAN_MOTION": 14.61705752, "ECCENTRICITY": 0.00056291, "INCLINATION": 98.3316, "RA_OF_ASC_NODE": 297.4704, "ARG_OF_PERICENTER": 351.2992, "MEAN_ANOMALY": 8.811, "EPHEMERIS_TYPE": 0, "CLASSIFICATION_TYPE": "U", "NORAD_CAT_ID": 38338, "ELEMENT_SET_NO": 999, "REV_AT_EPOCH": 72354, "BSTAR": 0.00025613075, "MEAN_MOTION_DOT": 1.228e-05, "MEAN_MOTION_DDOT": 0}, "tle": {"line1": "1 38338U 12025B   25342.90970425  .00001228  00000+0  25613-3 0  9999", "line2": "2 38338  98.3316 297.4704 0005629 351.2992   8.8110 14.61705752723540"}}, "geometry": {"type": "Point", "coordinates": [-62.18669470336182, 0.48400581140885446]}}, {"type": "Feature", "properties": {"norad_id": 38709, "name": "EXACTVIEW-1 (ADS-1B)", "group": "resource", "lat": 81.0014245520636, "lon": -3.0268444208825622, "alt_km": 800.8749894895218, "timestamp": "2025-12-09T07:41:32.859771+00:00", "meta": {"OBJECT_NAME": "EXACTVIEW-1 (ADS-1B)", "OBJECT_ID": "2012-039C", "EPOCH": "2025-12-08T21:09:26.321760", "MEAN_MOTION": 14.2490539, "ECCENTRICITY": 0.00108756, "INCLINATION": 98.9636, "RA_OF_ASC_NODE": 91.1907, "ARG_OF_PERICENTER": 5.4061, "MEAN_ANOMALY": 354.7232, "EPHEMERIS_TYPE": 0, "CLASSIFICATION_TYPE": "U", "NORAD_CAT_ID": 38709, "ELEMENT_SET_NO": 999, "REV_AT_EPOCH": 69560, "BSTAR": 0.00013709669, "MEAN_MOTION_DOT": 2.74e-06, "MEAN_MOTION_DDOT": 0}, "tle": {"line1": "1 38709U 12039C   25342.88155465  .00000274  00000+0  13710-3 0  9997", "line2": "2 38709  98.9636  91.1907 0010875   5.4061 354.7232 14.24905390695603"}}, "geometry": {"type": "Point", "coordinates": [-3.0268444208825622, 81.0014245520636]}}]}